[Satellite]
VERSION=1.1
NAME=SPOT 6
NICKNAME=SPOT 6
TLE1=1 38755U 12047A   15055.42215155  .00000419  00000-0  99908-4 0  9996
TLE2=2 38755  98.1668 124.0596 0000867  85.2467 274.8833 14.58580780130946
